[{"OBJECT_NAME":"STARLINK-11736 [DTC]","OBJECT_ID":"2025-124A","EPOCH":"2025-10-29T20:26:28.816224","MEAN_MOTION":15.70799292,"ECCENTRICITY":0.00014562,"INCLINATION":43,"RA_OF_ASC_NODE":98.166,"ARG_OF_PERICENTER":288.4242,"MEAN_ANOMALY":71.6467,"EPHEMERIS_TYPE":0,"CLASSIFICATION_TYPE":"U","NORAD_CAT_ID":64317,"ELEMENT_SET_NO":999,"REV_AT_EPOCH":2225,"BSTAR":0.0024848865,"MEAN_MOTION_DOT":0.00330858,"MEAN_MOTION_DDOT":0},{"OBJECT_NAME":"STARLINK-11673 [DTC]","OBJECT_ID":"2025-124B","EPOCH":"2025-10-30T03:33:42.014016","MEAN_MOTION":15.7096994,"ECCENTRICITY":0.00016836,"INCLINATION":42.9993,"RA_OF_ASC_NODE":96.0778,"ARG_OF_PERICENTER":283.08,"MEAN_ANOMALY":76.988,"EPHEMERIS_TYPE":0,"CLASSIFICATION_TYPE":"U","NORAD_CAT_ID":64318,"ELEMENT_SET_NO":999,"REV_AT_EPOCH":2230,"BSTAR":0.0022493314,"MEAN_MOTION_DOT":0.00300487,"MEAN_MOTION_DDOT":0},{"OBJECT_NAME":"STARLINK-11671 [DTC]","OBJECT_ID":"2025-124C","EPOCH":"2025-10-30T03:18:24.756192","MEAN_MOTION":15.70911824,"ECCENTRICITY":9.266e-5,"INCLINATION":42.9993,"RA_OF_ASC_NODE":95.9922,"ARG_OF_PERICENTER":329.0313,"MEAN_ANOMALY":31.05,"EPHEMERIS_TYPE":0,"CLASSIFICATION_TYPE":"U","NORAD_CAT_ID":64319,"ELEMENT_SET_NO":999,"REV_AT_EPOCH":2230,"BSTAR":0.0024416619,"MEAN_MOTION_DOT":0.00326465,"MEAN_MOTION_DDOT":0},{"OBJECT_NAME":"STARLINK-11594 [DTC]","OBJECT_ID":"2025-124D","EPOCH":"2025-10-29T20:34:07.734144","MEAN_MOTION":15.70831548,"ECCENTRICITY":9.767e-5,"INCLINATION":42.9999,"RA_OF_ASC_NODE":98.2082,"ARG_OF_PERICENTER":288.9043,"MEAN_ANOMALY":71.1719,"EPHEMERIS_TYPE":0,"CLASSIFICATION_TYPE":"U","NORAD_CAT_ID":64320,"ELEMENT_SET_NO":999,"REV_AT_EPOCH":2225,"BSTAR":0.000797907,"MEAN_MOTION_DOT":0.00103175,"MEAN_MOTION_DDOT":0},{"OBJECT_NAME":"STARLINK-11596 [DTC]","OBJECT_ID":"2025-124E","EPOCH":"2025-10-29T21:50:23.509248","MEAN_MOTION":15.70865612,"ECCENTRICITY":0.000218,"INCLINATION":42.9999,"RA_OF_ASC_NODE":97.7384,"ARG_OF_PERICENTER":277.8084,"MEAN_ANOMALY":82.2536,"EPHEMERIS_TYPE":0,"CLASSIFICATION_TYPE":"U","NORAD_CAT_ID":64321,"ELEMENT_SET_NO":999,"REV_AT_EPOCH":2226,"BSTAR":0.0023403375,"MEAN_MOTION_DOT":0.00311724,"MEAN_MOTION_DDOT":0},{"OBJECT_NAME":"STARLINK-11747 [DTC]","OBJECT_ID":"2025-124F","EPOCH":"2025-10-30T03:41:20.306400","MEAN_MOTION":15.70948575,"ECCENTRICITY":0.00021911,"INCLINATION":42.9995,"RA_OF_ASC_NODE":96.1188,"ARG_OF_PERICENTER":287.307,"MEAN_ANOMALY":72.7558,"EPHEMERIS_TYPE":0,"CLASSIFICATION_TYPE":"U","NORAD_CAT_ID":64322,"ELEMENT_SET_NO":999,"REV_AT_EPOCH":2230,"BSTAR":0.0026231443,"MEAN_MOTION_DOT":0.00352408,"MEAN_MOTION_DDOT":0},{"OBJECT_NAME":"STARLINK-11728 [DTC]","OBJECT_ID":"2025-124G","EPOCH":"2025-10-30T02:55:28.529472","MEAN_MOTION":15.7089375,"ECCENTRICITY":0.00010792,"INCLINATION":42.9994,"RA_OF_ASC_NODE":95.8622,"ARG_OF_PERICENTER":311.4713,"MEAN_ANOMALY":48.6062,"EPHEMERIS_TYPE":0,"CLASSIFICATION_TYPE":"U","NORAD_CAT_ID":64323,"ELEMENT_SET_NO":999,"REV_AT_EPOCH":2230,"BSTAR":0.002110085,"MEAN_MOTION_DOT":0.00280269,"MEAN_MOTION_DDOT":0},{"OBJECT_NAME":"STARLINK-11696 [DTC]","OBJECT_ID":"2025-124H","EPOCH":"2025-10-30T03:10:46.157952","MEAN_MOTION":15.70908356,"ECCENTRICITY":5.376e-5,"INCLINATION":42.9988,"RA_OF_ASC_NODE":95.947,"ARG_OF_PERICENTER":332.9734,"MEAN_ANOMALY":27.1105,"EPHEMERIS_TYPE":0,"CLASSIFICATION_TYPE":"U","NORAD_CAT_ID":64324,"ELEMENT_SET_NO":999,"REV_AT_EPOCH":2230,"BSTAR":0.0021701442,"MEAN_MOTION_DOT":0.00288743,"MEAN_MOTION_DDOT":0},{"OBJECT_NAME":"STARLINK-11698 [DTC]","OBJECT_ID":"2025-124J","EPOCH":"2025-10-30T03:19:43.838976","MEAN_MOTION":15.7091401,"ECCENTRICITY":9.736e-5,"INCLINATION":42.9992,"RA_OF_ASC_NODE":95.9971,"ARG_OF_PERICENTER":341.1761,"MEAN_ANOMALY":18.907,"EPHEMERIS_TYPE":0,"CLASSIFICATION_TYPE":"U","NORAD_CAT_ID":64325,"ELEMENT_SET_NO":999,"REV_AT_EPOCH":2230,"BSTAR":0.0028860099,"MEAN_MOTION_DOT":0.00388954,"MEAN_MOTION_DDOT":0},{"OBJECT_NAME":"STARLINK-11678 [DTC]","OBJECT_ID":"2025-124K","EPOCH":"2025-10-29T17:08:03.711840","MEAN_MOTION":15.70847935,"ECCENTRICITY":0.00016849,"INCLINATION":42.9986,"RA_OF_ASC_NODE":98.842,"ARG_OF_PERICENTER":263.2948,"MEAN_ANOMALY":96.7728,"EPHEMERIS_TYPE":0,"CLASSIFICATION_TYPE":"U","NORAD_CAT_ID":64326,"ELEMENT_SET_NO":999,"REV_AT_EPOCH":2223,"BSTAR":0.0015777975,"MEAN_MOTION_DOT":0.00207201,"MEAN_MOTION_DDOT":0},{"OBJECT_NAME":"STARLINK-11674 [DTC]","OBJECT_ID":"2025-124L","EPOCH":"2025-10-30T03:03:07.668576","MEAN_MOTION":15.70906095,"ECCENTRICITY":0.0001138,"INCLINATION":42.9989,"RA_OF_ASC_NODE":95.903,"ARG_OF_PERICENTER":2.5045,"MEAN_ANOMALY":357.5828,"EPHEMERIS_TYPE":0,"CLASSIFICATION_TYPE":"U","NORAD_CAT_ID":64327,"ELEMENT_SET_NO":999,"REV_AT_EPOCH":2230,"BSTAR":0.0026907312,"MEAN_MOTION_DOT":0.00361255,"MEAN_MOTION_DDOT":0},{"OBJECT_NAME":"STARLINK-11707 [DTC]","OBJECT_ID":"2025-124M","EPOCH":"2025-10-30T03:26:03.681024","MEAN_MOTION":15.70927034,"ECCENTRICITY":0.00011422,"INCLINATION":42.9999,"RA_OF_ASC_NODE":96.0307,"ARG_OF_PERICENTER":352.0913,"MEAN_ANOMALY":7.9937,"EPHEMERIS_TYPE":0,"CLASSIFICATION_TYPE":"U","NORAD_CAT_ID":64328,"ELEMENT_SET_NO":999,"REV_AT_EPOCH":2230,"BSTAR":0.0030208524,"MEAN_MOTION_DOT":0.00408333,"MEAN_MOTION_DDOT":0},{"OBJECT_NAME":"STARLINK-11734 [DTC]","OBJECT_ID":"2025-124N","EPOCH":"2025-10-29T19:10:00.712704","MEAN_MOTION":15.71018625,"ECCENTRICITY":0.00042264,"INCLINATION":42.9983,"RA_OF_ASC_NODE":97.7328,"ARG_OF_PERICENTER":255.6455,"MEAN_ANOMALY":104.3944,"EPHEMERIS_TYPE":0,"CLASSIFICATION_TYPE":"U","NORAD_CAT_ID":64329,"ELEMENT_SET_NO":999,"REV_AT_EPOCH":2225,"BSTAR":0.0026802236,"MEAN_MOTION_DOT":0.00361602,"MEAN_MOTION_DDOT":0},{"OBJECT_NAME":"STARLINK-34252","OBJECT_ID":"2025-124P","EPOCH":"2025-10-30T06:40:19.911072","MEAN_MOTION":15.27599569,"ECCENTRICITY":0.00025517,"INCLINATION":43.0033,"RA_OF_ASC_NODE":138.3798,"ARG_OF_PERICENTER":270.6173,"MEAN_ANOMALY":89.4386,"EPHEMERIS_TYPE":0,"CLASSIFICATION_TYPE":"U","NORAD_CAT_ID":64330,"ELEMENT_SET_NO":999,"REV_AT_EPOCH":2183,"BSTAR":0.0011624477,"MEAN_MOTION_DOT":0.00031885,"MEAN_MOTION_DDOT":0},{"OBJECT_NAME":"STARLINK-34050","OBJECT_ID":"2025-124Q","EPOCH":"2025-10-30T06:25:32.320416","MEAN_MOTION":15.27597353,"ECCENTRICITY":0.00014236,"INCLINATION":43.0008,"RA_OF_ASC_NODE":138.3048,"ARG_OF_PERICENTER":280.2922,"MEAN_ANOMALY":79.7769,"EPHEMERIS_TYPE":0,"CLASSIFICATION_TYPE":"U","NORAD_CAT_ID":64331,"ELEMENT_SET_NO":999,"REV_AT_EPOCH":2289,"BSTAR":0.0011567018,"MEAN_MOTION_DOT":0.00031722,"MEAN_MOTION_DDOT":0},{"OBJECT_NAME":"STARLINK-33782","OBJECT_ID":"2025-124R","EPOCH":"2025-10-30T06:08:52.302624","MEAN_MOTION":15.27613325,"ECCENTRICITY":0.00023531,"INCLINATION":43.0004,"RA_OF_ASC_NODE":138.2129,"ARG_OF_PERICENTER":275.1983,"MEAN_ANOMALY":84.8601,"EPHEMERIS_TYPE":0,"CLASSIFICATION_TYPE":"U","NORAD_CAT_ID":64332,"ELEMENT_SET_NO":999,"REV_AT_EPOCH":2183,"BSTAR":0.0013175667,"MEAN_MOTION_DOT":0.00036211,"MEAN_MOTION_DDOT":0}]
