STARLINK-11736 [DTC]    
1 64317U 25124A   25302.85172241  .00330858  00000+0  24849-2 0  9992
2 64317  43.0000  98.1660 0001456 288.4242  71.6467 15.70799292 22259
STARLINK-11673 [DTC]    
1 64318U 25124B   25303.14840294  .00300487  00000+0  22493-2 0  9994
2 64318  42.9993  96.0778 0001683 283.0800  76.9880 15.70969940 22301
STARLINK-11671 [DTC]    
1 64319U 25124C   25303.13778653  .00326465  00000+0  24417-2 0  9995
2 64319  42.9993  95.9922 0000926 329.0313  31.0500 15.70911824 22309
STARLINK-11594 [DTC]    
1 64320U 25124D   25302.85703396  .00103175  00000+0  79791-3 0  9994
2 64320  42.9999  98.2082 0000976 288.9043  71.1719 15.70831548 22253
STARLINK-11596 [DTC]    
1 64321U 25124E   25302.90999432  .00311724  00000+0  23403-2 0  9998
2 64321  42.9999  97.7384 0002180 277.8084  82.2536 15.70865612 22264
STARLINK-11747 [DTC]    
1 64322U 25124F   25303.15370725  .00352408  00000+0  26231-2 0  9991
2 64322  42.9995  96.1188 0002191 287.3070  72.7558 15.70948575 22302
STARLINK-11728 [DTC]    
1 64323U 25124G   25303.12185798  .00280269  00000+0  21101-2 0  9999
2 64323  42.9994  95.8622 0001079 311.4713  48.6062 15.70893750 22304
STARLINK-11696 [DTC]    
1 64324U 25124H   25303.13247868  .00288743  00000+0  21701-2 0  9999
2 64324  42.9988  95.9470 0000537 332.9734  27.1105 15.70908356 22308
STARLINK-11698 [DTC]    
1 64325U 25124J   25303.13870184  .00388954  00000+0  28860-2 0  9991
2 64325  42.9992  95.9971 0000973 341.1761  18.9070 15.70914010 22309
STARLINK-11678 [DTC]    
1 64326U 25124K   25302.71393185  .00207201  00000+0  15778-2 0  9995
2 64326  42.9986  98.8420 0001684 263.2948  96.7728 15.70847935 22232
STARLINK-11674 [DTC]    
1 64327U 25124L   25303.12717209  .00361255  00000+0  26907-2 0  9995
2 64327  42.9989  95.9030 0001138   2.5045 357.5828 15.70906095 22307
STARLINK-11707 [DTC]    
1 64328U 25124M   25303.14309816  .00408333  00000+0  30209-2 0  9998
2 64328  42.9999  96.0307 0001142 352.0913   7.9937 15.70927034 22303
STARLINK-11734 [DTC]    
1 64329U 25124N   25302.79861936  .00361602  00000+0  26802-2 0  9996
2 64329  42.9983  97.7328 0004226 255.6455 104.3944 15.71018625 22255
STARLINK-34252          
1 64330U 25124P   25303.27800823  .00031885  00000+0  11624-2 0  9993
2 64330  43.0033 138.3798 0002551 270.6173  89.4386 15.27599569 21839
STARLINK-34050          
1 64331U 25124Q   25303.26773519  .00031722  00000+0  11567-2 0  9990
2 64331  43.0008 138.3048 0001423 280.2922  79.7769 15.27597353 22899
STARLINK-33782          
1 64332U 25124R   25303.25616091  .00036211  00000+0  13176-2 0  9997
2 64332  43.0004 138.2129 0002353 275.1983  84.8601 15.27613325 21831
